start=new Date('2023-01-06T00:00:00.000Z').valueOf();
sats=[{"NORAD_CAT_ID":"49158","MEAN_MOTION_DOT":"0.00017029","SITE":"AFWTR","MEAN_MOTION_DDOT":"0.0000000000000","TLE_LINE1":"1 49158U 21082AE  23005.56437510  .00017029  00000-0  14233-2 0  9995","DECAY_DATE":null,"MEAN_ELEMENT_THEORY":"SGP4","EPOCH":"2023-01-05T13:32:42.008640","OBJECT_NAME":"STARLINK-3083","RA_OF_ASC_NODE":"317.0226","LAUNCH_DATE":"2021-09-14","SEMIMAJOR_AXIS":"6949.505","MEAN_ANOMALY":"95.6697","FILE":"3732939","ARG_OF_PERICENTER":"264.4115","TIME_SYSTEM":"UTC","OBJECT_ID":"2021-082AE","REV_AT_EPOCH":"7394","TLE_LINE2":"2 49158  70.0025 317.0226 0003042 264.4115  95.6697 14.98552496 73944","INCLINATION":"70.0025","BSTAR":"0.00142330000000","ELEMENT_SET_NO":"999","REF_FRAME":"TEME","CENTER_NAME":"EARTH","GP_ID":"222262452","RCS_SIZE":"LARGE","CLASSIFICATION_TYPE":"U","ECCENTRICITY":"0.00030420","PERIAPSIS":"569.256","PERIOD":"96.093","OBJECT_TYPE":"PAYLOAD","EPHEMERIS_TYPE":"0","APOAPSIS":"573.484","MEAN_MOTION":"14.98552496","COUNTRY_CODE":"US"},{"ELEMENT_SET_NO":"999","BSTAR":"0.00013108000000","CENTER_NAME":"EARTH","REF_FRAME":"TEME","GP_ID":"222262699","RCS_SIZE":"LARGE","CLASSIFICATION_TYPE":"U","ECCENTRICITY":"0.00033090","PERIOD":"96.106","PERIAPSIS":"569.732","OBJECT_TYPE":"PAYLOAD","EPHEMERIS_TYPE":"0","MEAN_MOTION":"14.98338496","APOAPSIS":"574.331","COUNTRY_CODE":"US","NORAD_CAT_ID":"49159","MEAN_MOTION_DOT":"0.00001472","SITE":"AFWTR","TLE_LINE1":"1 49159U 21082AF  23005.33466321  .00001472  00000-0  13108-3 0  9999","MEAN_MOTION_DDOT":"0.0000000000000","MEAN_ELEMENT_THEORY":"SGP4","EPOCH":"2023-01-05T08:01:54.901344","DECAY_DATE":null,"RA_OF_ASC_NODE":"337.6078","LAUNCH_DATE":"2021-09-14","SEMIMAJOR_AXIS":"6950.167","OBJECT_NAME":"STARLINK-3056","MEAN_ANOMALY":"100.3143","TIME_SYSTEM":"UTC","FILE":"3732939","ARG_OF_PERICENTER":"259.7643","REV_AT_EPOCH":"7341","OBJECT_ID":"2021-082AF","INCLINATION":"69.9979","TLE_LINE2":"2 49159  69.9979 337.6078 0003309 259.7643 100.3143 14.98338496 73416"},{"INCLINATION":"70.0021","TLE_LINE2":"2 49160  70.0021 336.7829 0003241 263.4917  96.5873 14.98351203 73433","REV_AT_EPOCH":"7343","OBJECT_ID":"2021-082AG","TIME_SYSTEM":"UTC","FILE":"3732963","ARG_OF_PERICENTER":"263.4917","MEAN_ELEMENT_THEORY":"SGP4","EPOCH":"2023-01-05T15:48:50.816736","DECAY_DATE":null,"MEAN_ANOMALY":"96.5873","SEMIMAJOR_AXIS":"6950.127","LAUNCH_DATE":"2021-09-14","RA_OF_ASC_NODE":"336.7829","OBJECT_NAME":"STARLINK-3095","MEAN_MOTION_DOT":"0.00005876","NORAD_CAT_ID":"49160","TLE_LINE1":"1 49160U 21082AG  23005.65892149  .00005876  00000-0  49959-3 0  9992","MEAN_MOTION_DDOT":"0.0000000000000","SITE":"AFWTR","EPHEMERIS_TYPE":"0","OBJECT_TYPE":"PAYLOAD","COUNTRY_CODE":"US","MEAN_MOTION":"14.98351203","APOAPSIS":"574.245","ECCENTRICITY":"0.00032410","PERIOD":"96.106","PERIAPSIS":"569.740","CLASSIFICATION_TYPE":"U","RCS_SIZE":"LARGE","CENTER_NAME":"EARTH","REF_FRAME":"TEME","BSTAR":"0.00049959000000","ELEMENT_SET_NO":"999","GP_ID":"222288403"},{"PERIOD":"96.106","PERIAPSIS":"569.860","ECCENTRICITY":"0.00031160","COUNTRY_CODE":"US","MEAN_MOTION":"14.98340515","APOAPSIS":"574.191","EPHEMERIS_TYPE":"0","OBJECT_TYPE":"PAYLOAD","GP_ID":"222288649","CENTER_NAME":"EARTH","REF_FRAME":"TEME","ELEMENT_SET_NO":"999","BSTAR":"0.00020193000000","CLASSIFICATION_TYPE":"U","RCS_SIZE":"LARGE","REV_AT_EPOCH":"7338","OBJECT_ID":"2021-082AH","TIME_SYSTEM":"UTC","FILE":"3732963","ARG_OF_PERICENTER":"266.8366","INCLINATION":"70.0004","TLE_LINE2":"2 49161  70.0004 337.7690 0003116 266.8366  93.2437 14.98340515 73386","TLE_LINE1":"1 49161U 21082AH  23005.26313242  .00002318  00000-0  20193-3 0  9999","MEAN_MOTION_DDOT":"0.0000000000000","SITE":"AFWTR","MEAN_MOTION_DOT":"0.00002318","NORAD_CAT_ID":"49161","MEAN_ANOMALY":"93.2437","RA_OF_ASC_NODE":"337.7690","LAUNCH_DATE":"2021-09-14","SEMIMAJOR_AXIS":"6950.160","OBJECT_NAME":"STARLINK-3080","EPOCH":"2023-01-05T06:18:54.641088","MEAN_ELEMENT_THEORY":"SGP4","DECAY_DATE":null},{"RCS_SIZE":"LARGE","CLASSIFICATION_TYPE":"U","GP_ID":"222287903","ELEMENT_SET_NO":"999","BSTAR":"0.00024590000000","CENTER_NAME":"EARTH","REF_FRAME":"TEME","MEAN_MOTION":"14.98340719","APOAPSIS":"574.170","COUNTRY_CODE":"US","OBJECT_TYPE":"PAYLOAD","EPHEMERIS_TYPE":"0","PERIOD":"96.106","PERIAPSIS":"569.879","ECCENTRICITY":"0.00030870","SEMIMAJOR_AXIS":"6950.160","LAUNCH_DATE":"2021-09-14","RA_OF_ASC_NODE":"336.7900","OBJECT_NAME":"STARLINK-3082","MEAN_ANOMALY":"89.2457","EPOCH":"2023-01-05T15:41:59.119872","MEAN_ELEMENT_THEORY":"SGP4","DECAY_DATE":null,"SITE":"AFWTR","TLE_LINE1":"1 49162U 21082AJ  23005.65415648  .00002843  00000-0  24590-3 0  9994","MEAN_MOTION_DDOT":"0.0000000000000","NORAD_CAT_ID":"49162","MEAN_MOTION_DOT":"0.00002843","INCLINATION":"70.0018","TLE_LINE2":"2 49162  70.0018 336.7900 0003087 270.8349  89.2457 14.98340719 73527","TIME_SYSTEM":"UTC","ARG_OF_PERICENTER":"270.8349","FILE":"3732963","REV_AT_EPOCH":"7352","OBJECT_ID":"2021-082AJ"},{"FILE":"3732939","ARG_OF_PERICENTER":"273.3072","TIME_SYSTEM":"UTC","OBJECT_ID":"2021-082AK","REV_AT_EPOCH":"7400","TLE_LINE2":"2 49163  70.0017 317.0376 0003132 273.3072  86.7728 14.98346154 74004","INCLINATION":"70.0017","NORAD_CAT_ID":"49163","MEAN_MOTION_DOT":"0.00001338","SITE":"AFWTR","MEAN_MOTION_DDOT":"0.0000000000000","TLE_LINE1":"1 49163U 21082AK  23005.56010757  .00001338  00000-0  11990-3 0  9995","DECAY_DATE":null,"EPOCH":"2023-01-05T13:26:33.294048","MEAN_ELEMENT_THEORY":"SGP4","OBJECT_NAME":"STARLINK-3088","LAUNCH_DATE":"2021-09-14","SEMIMAJOR_AXIS":"6950.143","RA_OF_ASC_NODE":"317.0376","MEAN_ANOMALY":"86.7728","ECCENTRICITY":"0.00031320","PERIAPSIS":"569.831","PERIOD":"96.106","EPHEMERIS_TYPE":"0","OBJECT_TYPE":"PAYLOAD","APOAPSIS":"574.185","MEAN_MOTION":"14.98346154","COUNTRY_CODE":"US","ELEMENT_SET_NO":"999","BSTAR":"0.00011990000000","REF_FRAME":"TEME","CENTER_NAME":"EARTH","GP_ID":"222262199","RCS_SIZE":"LARGE","CLASSIFICATION_TYPE":"U"},{"TLE_LINE1":"1 49164U 21082AL  23005.28353106  .00002993  00000-0  25835-3 0  9994","MEAN_MOTION_DDOT":"0.0000000000000","SITE":"AFWTR","MEAN_MOTION_DOT":"0.00002993","NORAD_CAT_ID":"49164","MEAN_ANOMALY":"90.4535","SEMIMAJOR_AXIS":"6950.124","LAUNCH_DATE":"2021-09-14","RA_OF_ASC_NODE":"317.7264","OBJECT_NAME":"STARLINK-3106","EPOCH":"2023-01-05T06:48:17.083584","MEAN_ELEMENT_THEORY":"SGP4","DECAY_DATE":null,"REV_AT_EPOCH":"7397","OBJECT_ID":"2021-082AL","TIME_SYSTEM":"UTC","FILE":"3732939","ARG_OF_PERICENTER":"269.6267","INCLINATION":"70.0013","TLE_LINE2":"2 49164  70.0013 317.7264 0003123 269.6267  90.4535 14.98352314 73976","GP_ID":"222261451","CENTER_NAME":"EARTH","REF_FRAME":"TEME","ELEMENT_SET_NO":"999","BSTAR":"0.00025835000000","CLASSIFICATION_TYPE":"U","RCS_SIZE":"LARGE","PERIOD":"96.106","PERIAPSIS":"569.818","ECCENTRICITY":"0.00031230","COUNTRY_CODE":"US","MEAN_MOTION":"14.98352314","APOAPSIS":"574.159","EPHEMERIS_TYPE":"0","OBJECT_TYPE":"PAYLOAD"},{"TLE_LINE2":"2 49165  70.0023 336.8068 0003224 266.0339  94.0451 14.98336294 73566","INCLINATION":"70.0023","OBJECT_ID":"2021-082AM","REV_AT_EPOCH":"7356","ARG_OF_PERICENTER":"266.0339","FILE":"3732963","TIME_SYSTEM":"UTC","DECAY_DATE":null,"EPOCH":"2023-01-05T15:35:07.323648","MEAN_ELEMENT_THEORY":"SGP4","MEAN_ANOMALY":"94.0451","OBJECT_NAME":"STARLINK-3052","LAUNCH_DATE":"2021-09-14","RA_OF_ASC_NODE":"336.8068","SEMIMAJOR_AXIS":"6950.173","MEAN_MOTION_DOT":"-0.00004390","NORAD_CAT_ID":"49165","MEAN_MOTION_DDOT":"0.0000000000000","TLE_LINE1":"1 49165U 21082AM  23005.64939032 -.00004390  00000-0 -36029-3 0  9995","SITE":"AFWTR","EPHEMERIS_TYPE":"0","OBJECT_TYPE":"PAYLOAD","COUNTRY_CODE":"US","APOAPSIS":"574.279","MEAN_MOTION":"14.98336294","ECCENTRICITY":"0.00032240","PERIAPSIS":"569.798","PERIOD":"96.107","CLASSIFICATION_TYPE":"U","RCS_SIZE":"LARGE","REF_FRAME":"TEME","CENTER_NAME":"EARTH","ELEMENT_SET_NO":"999","BSTAR":"-0.00036029000000","GP_ID":"222289150"},{"OBJECT_TYPE":"PAYLOAD","EPHEMERIS_TYPE":"0","COUNTRY_CODE":"US","APOAPSIS":"574.160","MEAN_MOTION":"14.98340614","ECCENTRICITY":"0.00030720","PERIAPSIS":"569.890","PERIOD":"96.106","CLASSIFICATION_TYPE":"U","RCS_SIZE":"LARGE","REF_FRAME":"TEME","CENTER_NAME":"EARTH","ELEMENT_SET_NO":"999","BSTAR":"0.00020404000000","GP_ID":"222262453","TLE_LINE2":"2 49166  70.0000 317.0463 0003072 278.9368  81.1443 14.98340614 74040","INCLINATION":"70.0000","OBJECT_ID":"2021-082AN","REV_AT_EPOCH":"7404","FILE":"3732939","ARG_OF_PERICENTER":"278.9368","TIME_SYSTEM":"UTC","DECAY_DATE":null,"EPOCH":"2023-01-05T13:19:41.480544","MEAN_ELEMENT_THEORY":"SGP4","MEAN_ANOMALY":"81.1443","OBJECT_NAME":"STARLINK-3089","RA_OF_ASC_NODE":"317.0463","LAUNCH_DATE":"2021-09-14","SEMIMAJOR_AXIS":"6950.160","MEAN_MOTION_DOT":"0.00002343","NORAD_CAT_ID":"49166","MEAN_MOTION_DDOT":"0.0000000000000","TLE_LINE1":"1 49166U 21082AN  23005.55534121  .00002343  00000-0  20404-3 0  9990","SITE":"AFWTR"},{"GP_ID":"222262700","REF_FRAME":"TEME","CENTER_NAME":"EARTH","BSTAR":"0.00040938000000","ELEMENT_SET_NO":"999","CLASSIFICATION_TYPE":"U","RCS_SIZE":"LARGE","PERIAPSIS":"569.596","PERIOD":"96.106","ECCENTRICITY":"0.00034470","COUNTRY_CODE":"US","APOAPSIS":"574.388","MEAN_MOTION":"14.98351350","OBJECT_TYPE":"PAYLOAD","EPHEMERIS_TYPE":"0","MEAN_MOTION_DDOT":"0.0000000000000","TLE_LINE1":"1 49167U 21082AP  23005.31082358  .00004798  00000-0  40938-3 0  9995","SITE":"AFWTR","MEAN_MOTION_DOT":"0.00004798","NORAD_CAT_ID":"49167","MEAN_ANOMALY":"100.0876","OBJECT_NAME":"STARLINK-3054","RA_OF_ASC_NODE":"337.6574","LAUNCH_DATE":"2021-09-14","SEMIMAJOR_AXIS":"6950.127","DECAY_DATE":null,"MEAN_ELEMENT_THEORY":"SGP4","EPOCH":"2023-01-05T07:27:35.157312","OBJECT_ID":"2021-082AP","REV_AT_EPOCH":"7351","FILE":"3732939","ARG_OF_PERICENTER":"259.9894","TIME_SYSTEM":"UTC","TLE_LINE2":"2 49167  70.0015 337.6574 0003447 259.9894 100.0876 14.98351350 73518","INCLINATION":"70.0015"}];
